BEIDOU 3 (C01)          
1 36287U 10001A   21032.40743731 -.00000280  00000-0  00000-0 0  9996
2 36287   1.6772  40.4138 0002759 107.3654 271.1532  1.00271774 40509
BEIDOU 5 (C06)          
1 36828U 10036A   21032.53852791 -.00000065  00000-0  00000-0 0  9997
2 36828  54.1725 180.8458 0102022 233.1926  26.6557  1.00244167 38546
BEIDOU 6 (C04)          
1 37210U 10057A   21032.62589752 -.00000111  00000-0  00000-0 0  9992
2 37210   0.9050  51.5350 0005523 194.8456 271.0605  1.00272297 37618
BEIDOU 7 (C07)          
1 37256U 10068A   21033.15885110 -.00000200  00000-0  00000+0 0  9998
2 37256  51.0915 295.6090 0081993 216.7567 153.9267  1.00299363 37131
BEIDOU 8 (C08)          
1 37384U 11013A   21033.22557094 -.00000176  00000-0  00000+0 0  9998
2 37384  59.5880  59.2648 0055125 206.3570  66.4532  1.00292331 36003
BEIDOU 9 (C09)          
1 37763U 11038A   21033.11039589 -.00000044  00000-0  00000+0 0  9992
2 37763  54.4641 183.2761 0077176 223.6438 218.0312  1.00292710 34989
BEIDOU 10 (C10)         
1 37948U 11073A   21032.88885167 -.00000140  00000-0  00000+0 0  9997
2 37948  51.1942 295.2241 0069929 215.7685  36.7940  1.00283928 33737
BEIDOU 11 (C05)         
1 38091U 12008A   21032.60069579  .00000057  00000-0  00000-0 0  9994
2 38091   1.9661  71.5793 0003967 247.5441  87.8106  1.00272562 32808
BEIDOU 12 (C11)         
1 38250U 12018A   21033.02618637 -.00000062  00000-0  00000+0 0  9990
2 38250  56.7563  10.0838 0024368 250.2431 325.8001  1.86234388 59761
BEIDOU 13 (C12)         
1 38251U 12018B   21032.95678977 -.00000062  00000-0  00000+0 0  9995
2 38251  56.6807   9.4434 0015400 255.4358 318.5277  1.86234210 59766
BEIDOU 15 (C14)         
1 38775U 12050B   21032.74042576  .00000012  00000-0  00000+0 0  9993
2 38775  55.1478 128.5602 0013109 319.8968 306.3608  1.86232302 57133
BEIDOU 16 (C02)         
1 38953U 12059A   21032.14146612 -.00000174  00000-0  00000+0 0  9990
2 38953   1.6437  84.8440 0009422 260.3833 281.2537  1.00270737 30379
BEIDOU 17 (C31)         
1 40549U 15019A   21033.22394711 -.00000166  00000-0  00000+0 0  9999
2 40549  52.7091 318.5526 0036780 189.4930 158.6736  1.00295444 21419
BEIDOU 18 (C57)         
1 40748U 15037A   21032.22434172 -.00000063  00000-0  00000-0 0  9992
2 40748  55.9455   8.6362 0004836 329.4838  23.4597  1.86233439 37572
BEIDOU 19 (C58)         
1 40749U 15037B   21033.26373586 -.00000065  00000-0  00000+0 0  9990
2 40749  55.9489   8.5887 0007208 304.9198 161.5753  1.86232248 37591
BEIDOU 20 (C18)         
1 40938U 15053A   21033.16251545 -.00000112  00000-0  00000+0 0  9990
2 40938  52.2688 281.6098 0045991 190.9574 174.6230  1.00267035 19708
BEIDOU IGSO-6 (C13)     
1 41434U 16021A   21031.89374350 -.00000123  00000-0  00000+0 0  9998
2 41434  57.3653  58.0801 0041104 215.1842 272.8795  1.00296675 17804
BEIDOU-2 G7 (C03)       
1 41586U 16037A   21033.21261493 -.00000355  00000-0  00000+0 0  9991
2 41586   1.9697  69.6029 0008735 359.8070 250.2043  1.00276295 17124
BEIDOU-3 M1 (C19)       
1 43001U 17069A   21033.07715637  .00000010  00000-0  00000+0 0  9996
2 43001  55.3031 128.4823 0008676 284.6682   3.7374  1.86231714 22076
BEIDOU-3 M2 (C20)       
1 43002U 17069B   21033.01521708  .00000011  00000-0  00000+0 0  9996
2 43002  55.3025 128.5206 0007236 310.2786 340.2249  1.86231488 22065
BEIDOU-3 M3 (C27)       
1 43107U 18003A   21032.14450167 -.00000064  00000-0  00000-0 0  9994
2 43107  55.3847   9.7802 0003983  23.4090 209.1969  1.86232578 20815
BEIDOU-3 M4 (C28)       
1 43108U 18003B   21032.56490966 -.00000064  00000-0  00000+0 0  9991
2 43108  55.3781   9.7571 0004411 257.5835 302.0688  1.86232569 20822
BEIDOU-3 M5 (C21)       
1 43207U 18018A   21031.64064589  .00000016  00000-0  00000-0 0  9990
2 43207  55.2606 128.6621 0005396 330.9359  29.0581  1.86231343 20191
BEIDOU-3 M6 (C22)       
1 43208U 18018B   21031.70737555  .00000016  00000-0  00000-0 0  9998
2 43208  55.2601 128.6648 0007548 296.1071  63.8396  1.86231507 20193
BEIDOU-3 M7 (C29)       
1 43245U 18029A   21032.28375025 -.00000065  00000-0  00000+0 0  9999
2 43245  55.3209   7.5731 0001680 292.9475 303.1439  1.86232621 19352
BEIDOU-3 M8 (C30)       
1 43246U 18029B   21032.75750531 -.00000065  00000-0  10000-3 0  9996
2 43246  55.3183   7.5887 0005206 331.6803 268.1287  1.86233016 19350
BEIDOU IGSO-7 (C16)     
1 43539U 18057A   21032.23563941 -.00000112  00000-0  00000-0 0  9991
2 43539  55.0550 180.1790 0031543 212.0758 297.3545  1.00254916  9487
BEIDOU-3 M9 (C23)       
1 43581U 18062A   21033.08995488  .00000065  00000-0  00000+0 0  9998
2 43581  54.4579 249.2445 0002810 314.0581 358.4021  1.86231906 17108
BEIDOU-3 M10 (C24)      
1 43582U 18062B   21032.34443229  .00000065  00000-0  00000-0 0  9999
2 43582  54.4585 249.2608 0006587   9.0324 254.8170  1.86232273 17098
BEIDOU-3 M11 (C25)      
1 43602U 18067A   21032.15726409  .00000067  00000-0  00000+0 0  9991
2 43602  54.5302 247.8382 0007460   3.0975 177.6987  1.86231510 16583
BEIDOU-3 M12 (C26)      
1 43603U 18067B   21032.29633413  .00000067  00000-0  00000-0 0  9990
2 43603  54.5291 247.8006 0004678 358.6625 185.8740  1.86231669 16609
BEIDOU-3 M13 (C32)      
1 43622U 18072A   21032.94488270  .00000011  00000-0  00000+0 0  9996
2 43622  55.2273 128.1903 0005416 279.4432  10.2468  1.86231531 16125
BEIDOU-3 M14 (C33)      
1 43623U 18072B   21032.27233346  .00000014  00000-0  00000-0 0  9999
2 43623  55.2267 128.2053 0003615 311.4689 337.5443  1.86231528 16119
BEIDOU-3 M15 (C34)      
1 43647U 18078A   21033.21881231 -.00000067  00000-0  10000-3 0  9991
2 43647  55.2143   7.7433 0007260 340.1324 118.6339  1.86232808 15647
BEIDOU-3 M16 (C35)      
1 43648U 18078B   21033.02033715 -.00000066  00000-0  10000-3 0  9996
2 43648  55.2111   7.7581 0005119 344.7340 249.6577  1.86232460 15650
BEIDOU-3 G1 (C59)       
1 43683U 18085A   21032.56709892 -.00000278  00000-0  00000-0 0  9998
2 43683   1.2930 241.5530 0003004  21.3671 213.2636  1.00269682  8395
BEIDOU-3 M17 (C36)      
1 43706U 18093A   21032.55942215  .00000065  00000-0  00000-0 0  9993
2 43706  54.5388 249.1116 0008208 280.6247 261.0970  1.86231910 14995
BEIDOU-3 M18 (C37)      
1 43707U 18093B   21032.42560209  .00000065  00000-0  00000-0 0  9999
2 43707  54.5397 249.1080 0007749 309.8306 232.8967  1.86232163 14998
BEIDOU-3 IGSO-1 (C38)   
1 44204U 19023A   21032.48980781 -.00000194  00000-0  00000-0 0  9997
2 44204  55.8227  58.3979 0017526 203.1949 160.9126  1.00280396  6690
BEIDOU-2 G8             
1 44231U 19027A   21033.22278014 -.00000247  00000-0  00000+0 0  9991
2 44231   0.4803 311.8836 0007005 271.1169 134.3858  1.00269931  6414
BEIDOU-3 IGSO-2 (C39)   
1 44337U 19035A   21032.47113152 -.00000105  00000-0  00000+0 0  9997
2 44337  55.0856 176.2222 0016756 184.6992  48.2058  1.00272242  6023
BEIDOU-3 M23 (C45)      
1 44542U 19061A   21030.62122446  .00000072  00000-0  10000-3 0  9992
2 44542  54.7639 249.2217 0008802 340.9852  25.4897  1.86231546  9225
BEIDOU-3 M24 (C46)      
1 44543U 19061B   21032.89359670  .00000066  00000-0  10000-3 0  9998
2 44543  54.7607 249.1140 0005788 339.4893  21.1787  1.86231963  9272
BEIDOU-3 IGSO-3         
1 44709U 19073A   21032.77897244 -.00000159  00000-0  00000+0 0  9995
2 44709  58.0547 301.5562 0019657 196.0393  22.4990  1.00265582  4780
BEIDOU-3 M21            
1 44793U 19078A   21032.18317314 -.00000065  00000-0  10000-3 0  9994
2 44793  55.0646   7.8598 0007021 347.7553  91.2800  1.86232392  8112
BEIDOU-3 M22            
1 44794U 19078B   21032.37652624 -.00000065  00000-0  10000-3 0  9992
2 44794  55.0386   7.8575 0005188 336.6406 142.7529  1.86233078  8117
BEIDOU-3 M19            
1 44864U 19090A   21033.11008840  .00000010  00000-0  00000+0 0  9996
2 44864  55.1618 128.4236 0015226 261.5271 184.3031  1.86231784  7715
BEIDOU-3 M20            
1 44865U 19090B   21032.28342963  .00000014  00000-0  00000-0 0  9996
2 44865  55.1625 128.4834 0013857 277.5530  63.9662  1.86231761  7673
BEIDOU-3 G2             
1 45344U 20017A   21033.12940993 -.00000138  00000-0  00000+0 0  9998
2 45344   2.6125 333.0921 0001651  25.8881 260.1471  1.00270046  3604
BEIDOU-3 G3             
1 45807U 20040A   21032.56125411 -.00000352  00000-0  00000-0 0  9994
2 45807   2.5966 298.4081 0010222  12.0048 134.1004  1.00275387  2411
